start=new Date('2022-09-28T00:00:00.000Z').valueOf();
sats=[{"MEAN_MOTION":"15.06399365","COUNTRY_CODE":"US","MEAN_MOTION_DOT":"-0.00000007","BSTAR":"0.00001845300000","PERIOD":"95.592","ELEMENT_SET_NO":"999","REF_FRAME":"TEME","CENTER_NAME":"EARTH","MEAN_ANOMALY":"292.2526","RA_OF_ASC_NODE":"324.1362","ECCENTRICITY":"0.00015780","MEAN_MOTION_DDOT":"0.0000000000000","PERIAPSIS":"546.123","TLE_LINE2":"2 47628  53.0559 324.1362 0001578  67.8631 292.2526 15.06399365 90205","TLE_LINE1":"1 47628U 21012J   22270.54429358 -.00000007  00000-0  18453-4 0  9999","SITE":"AFETR","GP_ID":"213636325","EPOCH":"2022-09-27T13:03:46.965312","NORAD_CAT_ID":"47628","LAUNCH_DATE":"2021-02-16","CLASSIFICATION_TYPE":"U","SEMIMAJOR_AXIS":"6925.351","APOAPSIS":"548.308","REV_AT_EPOCH":"9020","INCLINATION":"53.0559","RCS_SIZE":"LARGE","FILE":"3585092","DECAY_DATE":null,"MEAN_ELEMENT_THEORY":"SGP4","OBJECT_ID":"2021-012J","EPHEMERIS_TYPE":"0","TIME_SYSTEM":"UTC","OBJECT_TYPE":"PAYLOAD","ARG_OF_PERICENTER":"67.8631","OBJECT_NAME":"STARLINK-1973"},{"COUNTRY_CODE":"US","MEAN_MOTION":"15.06393981","REF_FRAME":"TEME","CENTER_NAME":"EARTH","MEAN_ANOMALY":"284.4467","ELEMENT_SET_NO":"999","BSTAR":"0.00000427090000","MEAN_MOTION_DOT":"-0.00000218","PERIOD":"95.593","TLE_LINE1":"1 47629U 21012K   22270.52680408 -.00000218  00000-0  42709-5 0  9999","TLE_LINE2":"2 47629  53.0545 204.2319 0001454  75.6683 284.4467 15.06393981 91361","MEAN_MOTION_DDOT":"0.0000000000000","PERIAPSIS":"546.225","ECCENTRICITY":"0.00014540","RA_OF_ASC_NODE":"204.2319","NORAD_CAT_ID":"47629","SITE":"AFETR","GP_ID":"213640872","EPOCH":"2022-09-27T12:38:35.872512","CLASSIFICATION_TYPE":"U","LAUNCH_DATE":"2021-02-16","FILE":"3585131","INCLINATION":"53.0545","RCS_SIZE":"LARGE","SEMIMAJOR_AXIS":"6925.367","APOAPSIS":"548.239","REV_AT_EPOCH":"9136","MEAN_ELEMENT_THEORY":"SGP4","DECAY_DATE":null,"OBJECT_NAME":"STARLINK-1974","OBJECT_TYPE":"PAYLOAD","TIME_SYSTEM":"UTC","ARG_OF_PERICENTER":"75.6683","OBJECT_ID":"2021-012K","EPHEMERIS_TYPE":"0"},{"OBJECT_NAME":"STARLINK-1983","ARG_OF_PERICENTER":"60.1911","OBJECT_TYPE":"PAYLOAD","TIME_SYSTEM":"UTC","EPHEMERIS_TYPE":"0","OBJECT_ID":"2021-012L","DECAY_DATE":null,"MEAN_ELEMENT_THEORY":"SGP4","FILE":"3585280","RCS_SIZE":"LARGE","INCLINATION":"53.0532","REV_AT_EPOCH":"9050","APOAPSIS":"548.241","SEMIMAJOR_AXIS":"6925.318","CLASSIFICATION_TYPE":"U","LAUNCH_DATE":"2021-02-16","NORAD_CAT_ID":"47630","GP_ID":"213666466","EPOCH":"2022-09-27T19:35:16.259424","SITE":"AFETR","TLE_LINE1":"1 47630U 21012L   22270.81616041  .00004371  00000-0  31206-3 0  9996","TLE_LINE2":"2 47630  53.0532 303.0182 0001528  60.1911 299.9230 15.06409921 90506","PERIAPSIS":"546.125","MEAN_MOTION_DDOT":"0.0000000000000","ECCENTRICITY":"0.00015280","RA_OF_ASC_NODE":"303.0182","MEAN_ANOMALY":"299.9230","CENTER_NAME":"EARTH","REF_FRAME":"TEME","ELEMENT_SET_NO":"999","PERIOD":"95.592","BSTAR":"0.00031206000000","MEAN_MOTION_DOT":"0.00004371","COUNTRY_CODE":"US","MEAN_MOTION":"15.06409921"},{"FILE":"3585280","APOAPSIS":"548.353","SEMIMAJOR_AXIS":"6925.343","REV_AT_EPOCH":"9156","INCLINATION":"53.0528","RCS_SIZE":"LARGE","CLASSIFICATION_TYPE":"U","LAUNCH_DATE":"2021-02-16","OBJECT_TYPE":"PAYLOAD","TIME_SYSTEM":"UTC","ARG_OF_PERICENTER":"74.9890","OBJECT_NAME":"STARLINK-1992","OBJECT_ID":"2021-012N","EPHEMERIS_TYPE":"0","DECAY_DATE":null,"MEAN_ELEMENT_THEORY":"SGP4","ELEMENT_SET_NO":"999","REF_FRAME":"TEME","CENTER_NAME":"EARTH","MEAN_ANOMALY":"285.1282","MEAN_MOTION_DOT":"0.00004183","BSTAR":"0.00029953000000","PERIOD":"95.592","COUNTRY_CODE":"US","MEAN_MOTION":"15.06401936","NORAD_CAT_ID":"47632","SITE":"AFETR","EPOCH":"2022-09-27T21:00:48.315744","GP_ID":"213664721","TLE_LINE2":"2 47632  53.0528 227.6572 0001654  74.9890 285.1282 15.06401936 91565","TLE_LINE1":"1 47632U 21012N   22270.87555921  .00004183  00000-0  29953-3 0  9990","ECCENTRICITY":"0.00016540","RA_OF_ASC_NODE":"227.6572","PERIAPSIS":"546.062","MEAN_MOTION_DDOT":"0.0000000000000"},{"TLE_LINE2":"2 47633  53.0566 324.0901 0001732  61.3354 298.7808 15.06401874 90225","TLE_LINE1":"1 47633U 21012P   22270.56271631 -.00001249  00000-0 -64924-4 0  9990","ECCENTRICITY":"0.00017320","RA_OF_ASC_NODE":"324.0901","MEAN_MOTION_DDOT":"0.0000000000000","PERIAPSIS":"546.008","NORAD_CAT_ID":"47633","SITE":"AFETR","EPOCH":"2022-09-27T13:30:18.689184","GP_ID":"213665471","COUNTRY_CODE":"US","MEAN_MOTION":"15.06401874","ELEMENT_SET_NO":"999","REF_FRAME":"TEME","MEAN_ANOMALY":"298.7808","CENTER_NAME":"EARTH","BSTAR":"-0.00006492400000","MEAN_MOTION_DOT":"-0.00001249","PERIOD":"95.592","DECAY_DATE":null,"MEAN_ELEMENT_THEORY":"SGP4","TIME_SYSTEM":"UTC","OBJECT_TYPE":"PAYLOAD","ARG_OF_PERICENTER":"61.3354","OBJECT_NAME":"STARLINK-2009","EPHEMERIS_TYPE":"0","OBJECT_ID":"2021-012P","CLASSIFICATION_TYPE":"U","LAUNCH_DATE":"2021-02-16","FILE":"3585280","APOAPSIS":"548.407","SEMIMAJOR_AXIS":"6925.343","REV_AT_EPOCH":"9022","RCS_SIZE":"LARGE","INCLINATION":"53.0566"},{"LAUNCH_DATE":"2021-02-16","CLASSIFICATION_TYPE":"U","RCS_SIZE":"LARGE","INCLINATION":"53.0561","APOAPSIS":"548.249","SEMIMAJOR_AXIS":"6925.333","REV_AT_EPOCH":"9024","FILE":"3585280","MEAN_ELEMENT_THEORY":"SGP4","DECAY_DATE":null,"EPHEMERIS_TYPE":"0","OBJECT_ID":"2021-012Q","OBJECT_NAME":"STARLINK-2010","OBJECT_TYPE":"PAYLOAD","TIME_SYSTEM":"UTC","ARG_OF_PERICENTER":"68.4197","MEAN_MOTION":"15.06405220","COUNTRY_CODE":"US","BSTAR":"0.00018025000000","MEAN_MOTION_DOT":"0.00002405","PERIOD":"95.592","REF_FRAME":"TEME","CENTER_NAME":"EARTH","MEAN_ANOMALY":"291.6954","ELEMENT_SET_NO":"999","PERIAPSIS":"546.146","MEAN_MOTION_DDOT":"0.0000000000000","ECCENTRICITY":"0.00015180","RA_OF_ASC_NODE":"322.6828","TLE_LINE1":"1 47634U 21012Q   22270.86958817  .00002405  00000-0  18025-3 0  9995","TLE_LINE2":"2 47634  53.0561 322.6828 0001518  68.4197 291.6954 15.06405220 90243","SITE":"AFETR","EPOCH":"2022-09-27T20:52:12.417888","GP_ID":"213665723","NORAD_CAT_ID":"47634"},{"INCLINATION":"53.0547","RCS_SIZE":"LARGE","APOAPSIS":"548.233","SEMIMAJOR_AXIS":"6925.375","REV_AT_EPOCH":"9155","FILE":"3585280","LAUNCH_DATE":"2021-02-16","CLASSIFICATION_TYPE":"U","EPHEMERIS_TYPE":"0","OBJECT_ID":"2021-012R","OBJECT_NAME":"STARLINK-2012","TIME_SYSTEM":"UTC","OBJECT_TYPE":"PAYLOAD","ARG_OF_PERICENTER":"79.7633","MEAN_ELEMENT_THEORY":"SGP4","DECAY_DATE":null,"BSTAR":"0.00005641700000","MEAN_MOTION_DOT":"0.00000559","PERIOD":"95.593","REF_FRAME":"TEME","MEAN_ANOMALY":"280.3517","CENTER_NAME":"EARTH","ELEMENT_SET_NO":"999","MEAN_MOTION":"15.06391486","COUNTRY_CODE":"US","SITE":"AFETR","GP_ID":"213665967","EPOCH":"2022-09-27T16:42:05.557824","NORAD_CAT_ID":"47635","MEAN_MOTION_DDOT":"0.0000000000000","PERIAPSIS":"546.247","ECCENTRICITY":"0.00014340","RA_OF_ASC_NODE":"228.4674","TLE_LINE1":"1 47635U 21012R   22270.69589766  .00000559  00000-0  56417-4 0  9996","TLE_LINE2":"2 47635  53.0547 228.4674 0001434  79.7633 280.3517 15.06391486 91550"},{"CLASSIFICATION_TYPE":"U","LAUNCH_DATE":"2021-02-16","FILE":"3585092","APOAPSIS":"548.240","SEMIMAJOR_AXIS":"6925.385","REV_AT_EPOCH":"9045","INCLINATION":"53.0566","RCS_SIZE":"LARGE","MEAN_ELEMENT_THEORY":"SGP4","DECAY_DATE":null,"OBJECT_TYPE":"PAYLOAD","TIME_SYSTEM":"UTC","ARG_OF_PERICENTER":"67.2226","OBJECT_NAME":"STARLINK-2013","EPHEMERIS_TYPE":"0","OBJECT_ID":"2021-012S","COUNTRY_CODE":"US","MEAN_MOTION":"15.06388156","ELEMENT_SET_NO":"999","REF_FRAME":"TEME","CENTER_NAME":"EARTH","MEAN_ANOMALY":"292.8914","BSTAR":"-0.00005881200000","MEAN_MOTION_DOT":"-0.00001157","PERIOD":"95.593","TLE_LINE2":"2 47636  53.0566 304.8389 0001430  67.2226 292.8914 15.06388156 90457","TLE_LINE1":"1 47636U 21012S   22270.39227858 -.00001157  00000-0 -58812-4 0  9993","ECCENTRICITY":"0.00014300","RA_OF_ASC_NODE":"304.8389","MEAN_MOTION_DDOT":"0.0000000000000","PERIAPSIS":"546.260","NORAD_CAT_ID":"47636","SITE":"AFETR","GP_ID":"213636575","EPOCH":"2022-09-27T09:24:52.869312"},{"ECCENTRICITY":"0.00017180","RA_OF_ASC_NODE":"302.8781","PERIAPSIS":"546.033","MEAN_MOTION_DDOT":"0.0000000000000","TLE_LINE2":"2 47637  53.0534 302.8781 0001718  64.8401 295.2766 15.06397048 90535","TLE_LINE1":"1 47637U 21012T   22270.82721309  .00003659  00000-0  26442-3 0  9992","SITE":"AFETR","EPOCH":"2022-09-27T19:51:11.210976","GP_ID":"213664972","NORAD_CAT_ID":"47637","MEAN_MOTION":"15.06397048","COUNTRY_CODE":"US","BSTAR":"0.00026442000000","MEAN_MOTION_DOT":"0.00003659","PERIOD":"95.592","ELEMENT_SET_NO":"999","REF_FRAME":"TEME","MEAN_ANOMALY":"295.2766","CENTER_NAME":"EARTH","DECAY_DATE":null,"MEAN_ELEMENT_THEORY":"SGP4","OBJECT_ID":"2021-012T","EPHEMERIS_TYPE":"0","OBJECT_TYPE":"PAYLOAD","TIME_SYSTEM":"UTC","ARG_OF_PERICENTER":"64.8401","OBJECT_NAME":"STARLINK-2014","LAUNCH_DATE":"2021-02-16","CLASSIFICATION_TYPE":"U","SEMIMAJOR_AXIS":"6925.358","APOAPSIS":"548.412","REV_AT_EPOCH":"9053","INCLINATION":"53.0534","RCS_SIZE":"LARGE","FILE":"3585280"},{"RA_OF_ASC_NODE":"228.4691","ECCENTRICITY":"0.00015270","PERIAPSIS":"546.314","MEAN_MOTION_DDOT":"0.0000000000000","TLE_LINE2":"2 47638  53.0546 228.4691 0001527  94.1816 265.9347 15.06348458 91537","TLE_LINE1":"1 47638U 21012U   22270.69222765  .00013864  00000-0  94909-3 0  9992","GP_ID":"213666223","EPOCH":"2022-09-27T16:36:48.468960","SITE":"AFETR","NORAD_CAT_ID":"47638","MEAN_MOTION":"15.06348458","COUNTRY_CODE":"US","PERIOD":"95.595","MEAN_MOTION_DOT":"0.00013864","BSTAR":"0.00094909000000","ELEMENT_SET_NO":"999","MEAN_ANOMALY":"265.9347","CENTER_NAME":"EARTH","REF_FRAME":"TEME","DECAY_DATE":null,"MEAN_ELEMENT_THEORY":"SGP4","EPHEMERIS_TYPE":"0","OBJECT_ID":"2021-012U","ARG_OF_PERICENTER":"94.1816","TIME_SYSTEM":"UTC","OBJECT_TYPE":"PAYLOAD","OBJECT_NAME":"STARLINK-2015","LAUNCH_DATE":"2021-02-16","CLASSIFICATION_TYPE":"U","REV_AT_EPOCH":"9153","APOAPSIS":"548.429","SEMIMAJOR_AXIS":"6925.507","INCLINATION":"53.0546","RCS_SIZE":"LARGE","FILE":"3585280"}];
